SAC-D
1 37673U 11024A   13358.36370394 +.00000000 +00000+0 +13492-4 6  9571
2 37673  98.0126   3.0768 0001604  76.7682 159.4884 14.72321203136043
